{
  "norad_id": 61577,
  "name": "STARLINK-11375 [DTC]",
  "history": [
    {
      "epoch": "2026-03-28T14:35:27.948768",
      "apogee_km": 360.39089784343923,
      "perigee_km": 359.0123360624111,
      "latitude_deg": 20.114922274792352,
      "longitude_deg": 36.064387519843876,
      "semi_major_axis_km": 6737.838616952925,
      "eccentricity": 0.0001023,
      "inclination_deg": 53.1591,
      "raan_deg": 202.8441,
      "arg_perigee_deg": 339.3738,
      "mean_anomaly_deg": 20.7238,
      "mean_motion_rev_day": 15.69718783
    }
  ]
}